BLUEWALKER-3            
1 53807U 22111AL  26199.16734657  .00002460  00000+0  73739-4 0  9990
2 53807  53.2274 248.4873 0004591 279.5361  80.5125 15.38627279214970
